ONEWEB-0569             
1 55148U 23004J   23018.91667824 -.00036045  00000+0 -36441-2 0  9998
2 55148  86.5120 281.9233 0012139 182.7373 270.2944 14.91272458  1307
ONEWEB-0570             
1 55149U 23004K   23018.91667824 -.00035725  00000+0 -36047-2 0  9995
2 55149  86.5119 281.9233 0012427 183.5689 271.7001 14.91346748  1309
ONEWEB-0571             
1 55150U 23004L   23018.91667824 -.00036095  00000+0 -35997-2 0  9991
2 55150  86.5141 281.9232 0013661 191.0838 278.3594 14.91802965  1304
ONEWEB-0572             
1 55151U 23004M   23019.25001157 -.00008021  00000+0 -81100-3 0  9997
2 55151  86.5129 281.7816 0011951 180.3904 259.2170 14.91223562  1502
ONEWEB-0573             
1 55152U 23004N   23018.91667824 -.00036740  00000+0 -37126-2 0  9996
2 55152  86.5130 281.9287 0012209 182.9557 270.8811 14.91293950  1305
ONEWEB-0588             
1 55153U 23004P   23018.91667824 -.00035667  00000+0 -36660-2 0  9996
2 55153  86.5147 281.9335 0009289 181.8204 251.2409 14.90631746  1303
ONEWEB-0598             
1 55154U 23004Q   23018.91667824 -.00036050  00000+0 -36898-2 0  9997
2 55154  86.5106 281.9268 0009968 179.9609 258.2873 14.90797905  1307
ONEWEB-0599             
1 55155U 23004R   23018.91667824 -.00035851  00000+0 -36200-2 0  9993
2 55155  86.5132 281.9285 0012322 183.3234 271.2531 14.91319023  1305
ONEWEB-0614             
1 55156U 23004S   23018.91667824 -.00036034  00000+0 -36815-2 0  9990
2 55156  86.5122 281.9283 0010168 178.9666 261.4010 14.90868497  1304
ONEWEB-0616             
1 55157U 23004T   23018.91667824 -.00035816  00000+0 -36375-2 0  9999
2 55157  86.5116 281.9245 0011521 180.8683 266.7796 14.91095011  1305
ONEWEB-0617             
1 55158U 23004U   23019.25001157 -.00007382  00000+0 -76061-3 0  9993
2 55158  86.5139 281.7851 0008845 181.8366 234.6751 14.90498560  1496
ONEWEB-0618             
1 55159U 23004V   23019.25001157  .00011140  00000+0  11191-2 0  9991
2 55159  86.5130 281.7814 0011705 179.1190 258.5638 14.91123210  1500
ONEWEB-0619             
1 55160U 23004W   23018.91667824 -.00036142  00000+0 -36388-2 0  9990
2 55160  86.5123 281.9246 0012775 183.8110 274.0883 14.91432942  1305
ONEWEB-0620             
1 55161U 23004X   23018.91667824 -.00036189  00000+0 -37109-2 0  9994
2 55161  86.5100 281.9261 0009658 181.1212 254.8257 14.90725918  1306
ONEWEB-0621             
1 55162U 23004Y   23018.91667824 -.00787328  00000+0 -10459+0 0  9999
2 55162  86.5563 281.9568 0008047 184.8086 173.8534 14.82767368  1304
ONEWEB-0622             
1 55163U 23004Z   23018.91667824 -.00035923  00000+0 -36995-2 0  9993
2 55163  86.5142 281.9325 0008959 182.9696 247.7060 14.90557348  1306
ONEWEB-0623             
1 55164U 23004AA  23019.25001157 -.00008800  00000+0 -87728-3 0  9998
2 55164  86.5110 281.7752 0013614 189.3873 267.9817 14.91768388  1501
ONEWEB-0624             
1 55165U 23004AB  23018.91667824 -.00036454  00000+0 -36232-2 0  9999
2 55165  86.5139 281.9218 0013581 193.3762 280.2429 14.91940772  1301
ONEWEB-0625             
1 55166U 23004AC  23019.25001157 -.00007638  00000+0 -77354-3 0  9992
2 55166  86.5118 281.7771 0011783 179.8893 258.0847 14.91165375  1504
ONEWEB-0626             
1 55167U 23004AD  23018.91667824 -.00036427  00000+0 -36180-2 0  9993
2 55167  86.5114 281.9222 0013737 194.2415 280.3127 14.91966488  1307
ONEWEB-0627             
1 55168U 23004AE  23018.91667824 -.00036225  00000+0 -36113-2 0  9996
2 55168  86.5108 281.9224 0013675 191.5538 278.3939 14.91817985  1305
ONEWEB-0628             
1 55169U 23004AF  23018.91667824 -.00036339  00000+0 -36179-2 0  9995
2 55169  86.5142 281.9227 0013652 192.6938 279.0057 14.91870982  1303
ONEWEB-0629             
1 55170U 23004AG  23018.91667824 -.00036490  00000+0 -36188-2 0  9995
2 55170  86.5124 281.9213 0013941 195.5578 280.9652 14.92024152  1306
ONEWEB-0631             
1 55171U 23004AH  23018.91667824 -.00036325  00000+0 -36264-2 0  9998
2 55171  86.5136 281.9227 0013588 190.3156 277.8356 14.91762810  1302
ONEWEB-0709             
1 55172U 23004AJ  23018.91667824 -.00036112  00000+0 -37046-2 0  9992
2 55172  86.5100 281.9260 0009540 181.4565 253.7035 14.90709152  1305
ONEWEB-0710             
1 55173U 23004AK  23018.91667824 -.00036388  00000+0 -36403-2 0  9994
2 55173  86.5124 281.9236 0013418 188.8969 276.6735 14.91681438  1301
ONEWEB-0711             
1 55174U 23004AL  23019.25001157 -.00007512  00000+0 -77281-3 0  9991
2 55174  86.5100 281.7798 0009067 180.9720 237.6075 14.90560640  1494
ONEWEB-0713             
1 55175U 23004AM  23018.91667824 -.00035956  00000+0 -37083-2 0  9991
2 55175  86.5110 281.9291 0008477 182.3051 246.6274 14.90501943  1305
ONEWEB-0715             
1 55176U 23004AN  23018.91667824 -.00036196  00000+0 -37245-2 0  9999
2 55176  86.5146 281.9331 0009185 182.0354 249.8912 14.90590550  1306
ONEWEB-0716             
1 55177U 23004AP  23019.25001157 -.00008047  00000+0 -81022-3 0  9996
2 55177  86.5132 281.7800 0012575 182.1724 262.8524 14.91389528  1508
ONEWEB-0717             
1 55178U 23004AQ  23018.91667824 -.00036157  00000+0 -37060-2 0  9993
2 55178  86.5104 281.9268 0009658 182.0723 254.7118 14.90743783  1307
ONEWEB-0719             
1 55179U 23004AR  23018.91667824 -.00036063  00000+0 -36635-2 0  9997
2 55179  86.5117 281.9252 0011394 180.7439 266.4731 14.91086837  1306
1998-067UY              
1 55181U 98067UY  23019.09928010  .00096312  00000+0  15359-2 0  9999
2 55181  51.6420 346.8959 0003428 229.0288 131.0406 15.52430212  1980
HSKSAT                  
1 55182U 98067UZ  23018.32675981  .00076505  00000+0  12436-2 0  9996
2 55182  51.6418 350.7371 0002982 213.9192 146.1608 15.52003046  1870
1998-067VA              
1 55183U 98067VA  23018.32737330  .00060572  00000+0  99482-3 0  9998
2 55183  51.6431 350.7416 0004745 315.1007  44.9598 15.51809546  1876
2023-005A               
1 55239U 23005A   23019.15277252  .00000033  00000+0  00000+0 0  9994
2 55239  28.2343 352.3525 1872577 117.2783   6.3230 10.52497816   938
2023-005B               
1 55240U 23005B   23018.26942625  .00002138 -67385-5  00000+0 0  9994
2 55240  28.5075 345.1182 0193066 172.8273 322.1732 15.80443900   873
DRAGON CRS-26 TRUNK     
1 55241U 22159B   23019.25361565  .02606982  11642-4  10800-2 0  9996
2 55241  51.6294 342.6073 0064453 189.7719 170.1930 16.17032484  1272
2023-006A               
1 55242U 23006A   23019.16692571  .00015761  00000+0  79333-3 0  9998
2 55242  43.2006 173.7754 0009994 314.5694 214.6025 15.16962533   890
2023-006B               
1 55243U 23006B   23019.16962366  .00010236  00000+0  52152-3 0  9993
2 55243  43.2001 173.7631 0009791 315.5093 226.6561 15.16847543   890
2023-006C               
1 55244U 23006C   23019.16999896  .00008030  00000+0  41958-3 0  9993
2 55244  43.1996 173.7922 0007169 305.4067 225.5169 15.16207785   847
2023-006D               
1 55245U 23006D   23019.16871925  .00037433  00000+0  18819-2 0  9994
2 55245  43.2000 173.7864 0007520 305.4707 223.4433 15.16612690   859
2023-007A               
1 55248U 23007A   23019.32701013 -.00007761  00000+0 -31638-3 0  9994
2 55248  97.3794  93.7213 0008392 223.1133 202.3024 15.24155841   646
2023-007B               
1 55249U 23007B   23019.32617731  .00020099  00000+0  81802-3 0  9993
2 55249  97.3805  93.7196 0007974 232.5158 193.5352 15.24512697   636
2023-007C               
1 55250U 23007C   23019.32545818  .00028531  00000+0  11497-2 0  9992
2 55250  97.3765  93.7177 0007119 237.6887 187.7657 15.24779646   630
2023-007D               
1 55251U 23007D   23019.32526372  .00011668  00000+0  47197-3 0  9997
2 55251  97.3814  93.7231 0007856 241.2988 184.1484 15.24842213   638
2023-007E               
1 55252U 23007E   23019.32506723 -.00007226  00000+0 -28829-3 0  9994
2 55252  97.3701  93.7140 0007485 243.2287 182.2431 15.24859130   632
2023-007F               
1 55253U 23007F   23019.32475560  .00009667  00000+0  39006-3 0  9997
2 55253  97.3780  93.7208 0007373 248.0439 177.4309 15.24979192   634
2023-007G               
1 55254U 23007G   23019.32460457 -.00015714  00000+0 -62760-3 0  9992
2 55254  97.3823  93.7267 0007378 249.0087 176.4584 15.25039501   639
2023-007H               
1 55255U 23007H   23019.32373898  .00026943  00000+0  10647-2 0  9995
2 55255  97.3746  93.7266 0007941 264.1968 161.2627 15.25441115   633
2023-007J               
1 55256U 23007J   23019.32371200 -.00004854  00000+0 -18953-3 0  9999
2 55256  97.3794  93.7242 0007853 262.4732 162.9992 15.25398202   634
2023-007K               
1 55257U 23007K   23019.13189722  .00013514  00000+0  53710-3 0  9996
2 55257  97.3768  93.5320 0007462 262.1279 191.4867 15.25399719   609
2023-007L               
1 55258U 23007L   23019.13026465 -.00000071  00000+0  00000+0 0  9996
2 55258  97.3769  93.5308 0006191 267.1583 178.8163 15.25481945   609
2023-007M               
1 55259U 23007M   23019.06590328 -.00000072  00000+0  00000+0 0  9994
2 55259  97.3732  93.4668 0007525 279.7912 177.2575 15.25785479   592
2023-007N               
1 55260U 23007N   23019.12805108 -.00000072  00000+0  00000+0 0  9998
2 55260  97.3744  93.5322 0007410 302.2671 144.9784 15.26436550   601
2023-007P               
1 55261U 23007P   23019.00051539 -.00000072  00000+0  00000+0 0  9997
2 55261  97.3795  93.4124 0007761 300.2344 168.5531 15.26562263   581
2023-009A               
1 55268U 23009A   23018.82690690  .00000216  00000+0  00000+0 0  9991
2 55268  55.0121 202.1189 5935011 270.0616  26.2506  4.03889940    18
